ONEWEB-0647             
1 56079U 23043AK  23259.10278478  .00000015  00000+0  59535-5 0  9994
2 56079  87.8951  99.3562 0001981 101.2800 258.8553 13.15553972 24274
ONEWEB-0651             
1 56080U 23043AL  23258.56617976  .00000139  00000+0  33551-3 0  9990
2 56080  87.8948  99.4377 0001415 100.8283 259.3007 13.15550321 24207
ONEWEB-0718             
1 56081U 23043AM  23258.63802371  .00000164  00000+0  40089-3 0  9996
2 56081  87.8878  99.4625 0001753  62.2184 297.9124 13.15552003 25132
GSLV R/B                
1 56082U 23043AN  23258.99974418  .00028387  00000+0  58575-3 0  9994
2 56082  87.4072  80.9167 0023632  71.3056 289.0764 15.45424190 26784
ONEWEB-0561             
1 56710U 23068A   23259.10648850  .00019666  00000+0  39427-1 0  9994
2 56710  88.1027 107.9216 0003092  84.9396 275.2098 13.34186102 17275
ONEWEB-0668             
1 56711U 23068B   23259.03952858  .00001488  00000+0  20029-3 0  9996
2 56711  86.7181  91.8029 0015534 157.4996 202.6909 14.78452572 18351
ONEWEB-0676             
1 56712U 23068C   23259.05083301  .00001438  00000+0  19391-3 0  9992
2 56712  86.7139  91.7454 0015600 161.7312 198.4473 14.78333182 18353
ONEWEB-0677             
1 56713U 23068D   23259.10934369  .00004027  00000+0  79958-2 0  9999
2 56713  88.0882 105.7626 0001447  57.4749 302.6532 13.34764269 17450
